OBJECT_NAME,OBJECT_ID,EPOCH,MEAN_MOTION,ECCENTRICITY,INCLINATION,RA_OF_ASC_NODE,ARG_OF_PERICENTER,MEAN_ANOMALY,EPHEMERIS_TYPE,CLASSIFICATION_TYPE,NORAD_CAT_ID,ELEMENT_SET_NO,REV_AT_EPOCH,BSTAR,MEAN_MOTION_DOT,MEAN_MOTION_DDOT
ONEWEB-0246,2021-045V,2026-07-23T09:08:13.777728,13.15548350,.0002026,87.8988,251.9788,99.2133,260.9227,0,U,48786,999,24903,-.10804E-3,-.28E-6,0
ONEWEB-0210,2021-045W,2026-07-23T10:21:14.816736,13.15548022,.0002104,87.8986,251.9658,121.0264,239.1073,0,U,48787,999,24908,.20195E-3,.89E-6,0
ONEWEB-0214,2021-045X,2026-07-23T08:44:16.119744,13.15546668,.0001762,87.8988,251.9762,103.7226,256.4100,0,U,48788,999,24904,.21707E-3,.95E-6,0
ONEWEB-0221,2021-045Y,2026-07-23T05:15:29.929824,13.15547810,.0002137,87.8986,252.0131,100.0908,260.0463,0,U,48789,999,24911,.73646E-4,.41E-6,0
ONEWEB-0213,2021-045Z,2026-07-23T04:59:31.249248,13.15548711,.0002155,87.8988,252.0189,104.9982,255.1387,0,U,48790,999,24917,.15282E-3,.7E-6,0
ONEWEB-0212,2021-045AA,2026-07-23T13:34:02.688096,13.15547260,.0002053,87.8981,251.9416,95.9312,264.2052,0,U,48791,999,24921,.99937E-4,.5E-6,0
ONEWEB-0227,2021-045AB,2026-07-23T13:32:52.869984,13.15557958,.00021,87.8988,251.9421,97.9418,262.1951,0,U,48792,999,24916,-.90932E-3,-.33E-5,0
ONEWEB-0226,2021-045AC,2026-07-23T13:23:46.991328,13.15547728,.0002078,87.8980,251.9478,103.9108,256.2253,0,U,48793,999,24913,-.35496E-4,-.1E-7,0
ONEWEB-0224,2021-045AD,2026-07-23T08:52:15.530880,13.15548845,.0002901,87.8980,252.0175,90.1222,270.0241,0,U,48794,999,24903,.21539E-4,.21E-6,0
ONEWEB-0233,2021-045AE,2026-07-23T03:30:18.802944,13.15548405,.0002281,87.8976,252.0690,100.5974,259.5413,0,U,48795,999,24902,-.54088E-3,-.191E-5,0
ONEWEB-0190,2021-045AF,2026-07-23T05:01:47.984160,13.15549007,.0002436,87.8984,252.0206,111.0546,249.0845,0,U,48796,999,24910,.15294E-3,.7E-6,0
ONEWEB-0236,2021-045AG,2026-07-23T14:34:30.982656,13.15548788,.0002084,87.8973,251.9483,92.3149,267.8220,0,U,48797,999,24904,-.10242E-3,-.26E-6,0
ONEWEB-0248,2021-045AH,2026-07-23T09:24:11.208960,13.15549261,.0002524,87.8983,251.9785,101.5309,258.6105,0,U,48798,999,24917,-.32954E-3,-.111E-5,0
ONEWEB-0225,2021-045AJ,2026-07-23T13:35:11.852160,13.15548254,.0002402,87.8973,251.9504,108.8067,251.3324,0,U,48799,999,24920,.14394E-3,.67E-6,0
ONEWEB-0215,2021-045AK,2026-07-23T03:44:12.397056,13.15549660,.0002579,87.8987,252.0168,108.0571,252.0840,0,U,48800,999,24902,-.32836E-3,-.111E-5,0
ONEWEB-0216,2021-045AL,2026-07-23T13:05:31.880832,13.15548066,.0001992,87.8983,251.9530,97.0132,263.1225,0,U,48801,999,24908,-.4241E-3,-.147E-5,0
ONEWEB-0239,2021-045AM,2026-07-23T09:33:20.198880,13.15548045,.0002833,87.8975,251.9857,104.5978,255.5466,0,U,48802,999,24910,-.262E-3,-.86E-6,0
ONEWEB-0249,2021-060A,2026-07-23T07:16:56.702784,13.16592738,.000218,87.9079,221.6035,93.0252,267.1128,0,U,48967,999,24436,-.99509E-4,-.25E-6,0
ONEWEB-0250,2021-060B,2026-07-23T01:54:05.226624,13.25835498,.00029224,87.9077,219.2870,78.9328,281.2136,0,U,48968,999,24497,.11861077E-3,.65E-6,0
ONEWEB-0252,2021-060D,2026-07-23T11:40:17.513184,13.16586671,.0001741,87.9078,221.5598,98.1322,262.0006,0,U,48970,999,24443,-.25334E-2,-.955E-5,0
ONEWEB-0253,2021-060E,2026-07-23T11:24:19.089216,13.16595307,.0002185,87.9075,221.5669,91.4750,268.6632,0,U,48971,999,24436,-.53245E-5,.11E-6,0
ONEWEB-0254,2021-060F,2026-07-23T07:59:08.786112,13.16594091,.000236,87.9079,221.5936,95.6584,264.4816,0,U,48972,999,24434,.16515E-3,.76E-6,0
ONEWEB-0255,2021-060G,2026-07-23T10:43:17.940288,13.16594208,.0002231,87.9081,221.5772,95.3537,264.7848,0,U,48973,999,24443,-.71091E-4,-.14E-6,0
ONEWEB-0256,2021-060H,2026-07-23T07:42:03.058272,13.16595114,.0001928,87.9070,221.6044,93.6471,266.4880,0,U,48974,999,24438,-.51642E-4,-.7E-7,0
ONEWEB-0257,2021-060J,2026-07-23T01:11:02.532768,13.16594601,.00020799,87.9076,221.6467,95.9262,264.2106,0,U,48975,999,24430,.25006687E-3,.108E-5,0
ONEWEB-0258,2021-060K,2026-07-23T01:13:17.686560,13.16593466,.00021009,87.9082,221.6596,92.0888,268.0484,0,U,48976,999,24431,.28965823E-3,.124E-5,0
ONEWEB-0259,2021-060L,2026-07-23T12:00:48.947328,13.16594379,.0002231,87.9076,221.5684,92.5665,267.5722,0,U,48977,999,24440,.353E-3,.148E-5,0
ONEWEB-0260,2021-060M,2026-07-23T02:41:04.430976,13.16593042,.00016921,87.9068,221.6455,97.4100,262.7224,0,U,48978,999,24433,.26788565E-3,.115E-5,0
ONEWEB-0261,2021-060N,2026-07-23T01:57:47.302272,13.16594029,.00021709,87.9075,221.6525,100.9687,259.1688,0,U,48979,999,24438,-.21329227E-3,-.69E-6,0
ONEWEB-0262,2021-060P,2026-07-23T12:25:53.663808,13.16594094,.0001922,87.9074,221.5525,89.9362,270.1989,0,U,48980,999,24440,.32617E-3,.138E-5,0
ONEWEB-0263,2021-060Q,2026-07-23T11:22:03.292608,13.16593949,.0002294,87.9076,221.5733,99.4202,260.7188,0,U,48981,999,24436,.87448E-4,.46E-6,0
ONEWEB-0264,2021-060R,2026-07-23T12:15:37.623168,13.16593143,.0001997,87.9073,221.5677,97.8588,262.2770,0,U,48982,999,24437,.17596E-3,.8E-6,0
ONEWEB-0266,2021-060T,2026-07-23T01:49:46.136352,13.16595340,.0002104,87.9077,221.6456,89.5509,270.5863,0,U,48984,999,24430,-.53678412E-3,-.192E-5,0
ONEWEB-0267,2021-060U,2026-07-23T11:12:56.156832,13.16594296,.0002105,87.9080,221.5653,98.0352,262.1018,0,U,48985,999,24436,-.81917E-4,-.18E-6,0
ONEWEB-0268,2021-060V,2026-07-23T03:09:34.509024,13.16594011,.00019229,87.9081,221.6411,92.6388,267.4964,0,U,48986,999,24458,.98404003E-4,.5E-6,0
ONEWEB-0269,2021-060W,2026-07-23T08:10:32.603232,13.16594484,.0001826,87.9068,221.5992,88.1712,271.9628,0,U,48987,999,24438,-.58295E-4,-.9E-7,0
ONEWEB-0270,2021-060X,2026-07-23T03:07:17.692896,13.16598100,.00030208,87.9090,221.6441,104.1662,255.9805,0,U,48988,999,24439,-.25485328E-2,-.961E-5,0
ONEWEB-0271,2021-060Y,2026-07-23T08:17:23.069760,13.16594861,.0002184,87.9077,221.5898,98.0298,262.1081,0,U,48989,999,24442,.27693E-3,.119E-5,0
ONEWEB-0272,2021-060Z,2026-07-23T03:20:58.383168,13.16595860,.00018431,87.9073,221.6412,98.9011,261.2329,0,U,48990,999,24434,-.32376305E-4,0,0
ONEWEB-0273,2021-060AA,2026-07-23T11:10:37.555680,13.16593571,.0002168,87.9073,221.5771,94.6019,265.5359,0,U,48991,999,24436,-.2484E-5,.12E-6,0
ONEWEB-0274,2021-060AB,2026-07-23T02:39:55.547712,13.16595406,.00018059,87.9066,221.6469,98.5503,261.5833,0,U,48992,999,24435,.28871303E-3,.123E-5,0
ONEWEB-0275,2021-060AC,2026-07-23T11:31:07.896864,13.16588501,.0001232,87.9075,221.5661,102.7016,257.4253,0,U,48993,999,24433,.15846E-3,.73E-6,0
ONEWEB-0276,2021-060AD,2026-07-23T10:29:37.243104,13.16594461,.0001897,87.9077,221.5741,94.2069,265.9278,0,U,48994,999,24434,.82347E-4,.44E-6,0
ONEWEB-0277,2021-060AE,2026-07-23T10:47:51.198432,13.16595652,.0002173,87.9073,221.5782,95.4863,264.6515,0,U,48995,999,24433,-.12401E-3,-.35E-6,0
ONEWEB-0278,2021-060AF,2026-07-23T01:27:00.157536,13.16594494,.00021323,87.9080,221.6481,86.5693,273.5682,0,U,48996,999,24441,.19724581E-3,.88E-6,0
ONEWEB-0279,2021-060AG,2026-07-23T10:45:34.859232,13.16594075,.0002116,87.9079,221.5690,100.0007,260.1362,0,U,48997,999,24439,-.13691E-3,-.39E-6,0
ONEWEB-0280,2021-060AH,2026-07-23T11:07:13.076256,13.16595536,.0002403,87.9078,221.5703,90.5403,269.6003,0,U,48998,999,24433,-.13528E-3,-.39E-6,0
ONEWEB-0281,2021-060AJ,2026-07-23T11:15:11.755584,13.16592291,.0001906,87.9078,221.5649,92.6374,267.4976,0,U,48999,999,24440,-.32341E-5,.12E-6,0
ONEWEB-0282,2021-060AK,2026-07-23T08:19:39.061632,13.16595516,.0002166,87.9075,221.5965,93.5643,266.5736,0,U,49000,999,24436,.30406E-3,.129E-5,0
ONEWEB-0283,2021-060AL,2026-07-23T02:35:23.604576,13.16593501,.00020506,87.9070,221.6433,97.5384,262.5980,0,U,49001,999,24434,.28311009E-3,.121E-5,0
ONEWEB-0284,2021-060AM,2026-07-23T07:54:35.322336,13.16593842,.000233,87.9075,221.5932,87.6699,272.4699,0,U,49002,999,24435,.87254E-4,.46E-6,0
ONEWEB-0285,2021-075A,2026-07-23T19:21:28.448064,13.12446201,.0001784,87.8985,343.3843,93.7916,266.3417,0,U,49075,999,24001,-.12434E-2,-.435E-5,0
ONEWEB-0286,2021-075B,2026-07-23T07:56:58.780896,13.12442236,.0001649,87.8975,343.4912,92.8629,267.2688,0,U,49076,999,23930,-.82187E-3,-.283E-5,0
ONEWEB-0287,2021-075C,2026-07-23T09:19:01.170336,13.17648610,.0001681,87.9153,358.6646,80.6174,279.5148,0,U,49077,999,23839,.34945E-4,.26E-6,0
ONEWEB-0288,2021-075D,2026-07-23T09:12:48.807072,13.12442256,.0001865,87.8983,343.4602,86.8082,273.3260,0,U,49078,999,23993,.10037E-2,.374E-5,0
ONEWEB-0289,2021-075E,2026-07-23T10:14:54.004416,13.17648587,.0002267,87.9158,358.6758,92.4338,267.7053,0,U,49079,999,23897,-.38677E-3,-.137E-5,0
ONEWEB-0290,2021-075F,2026-07-23T20:32:06.806976,13.17647946,.000236,87.9165,358.5638,93.3315,266.8087,0,U,49080,999,23844,.66015E-4,.39E-6,0
ONEWEB-0291,2021-075G,2026-07-23T09:14:10.713408,13.17650125,.0001965,87.9153,358.6626,84.0521,276.0834,0,U,49081,999,23837,.11048E-3,.56E-6,0
ONEWEB-0293,2021-075H,2026-07-23T20:46:41.464416,13.17647788,.0001973,87.9161,358.5697,92.5503,267.5855,0,U,49082,999,23846,.74123E-4,.42E-6,0
ONEWEB-0294,2021-075J,2026-07-23T14:51:54.618624,13.12442251,.0002169,87.8987,343.4182,95.5359,264.6017,0,U,49083,999,23935,.79412E-3,.298E-5,0
ONEWEB-0295,2021-075K,2026-07-23T20:45:28.110816,13.17650353,.0001809,87.9160,358.5737,84.9091,275.2247,0,U,49084,999,23842,.24409E-4,.22E-6,0
ONEWEB-0296,2021-075L,2026-07-23T19:51:58.940928,13.12443925,.0001895,87.8979,343.3848,86.9872,273.1474,0,U,49085,999,23938,.8663E-3,.324E-5,0
ONEWEB-0297,2021-075M,2026-07-23T20:35:53.123136,13.12442118,.0001825,87.8982,343.3864,90.7558,269.3779,0,U,49086,999,23999,-.11881E-3,-.3E-6,0
ONEWEB-0298,2021-075N,2026-07-23T09:55:41.261664,13.17649980,.0001725,87.9154,358.6618,93.9294,266.2035,0,U,49087,999,23839,.18244E-3,.84E-6,0
ONEWEB-0299,2021-075P,2026-07-23T20:53:59.586720,13.17648465,.0001742,87.9154,358.5545,90.7627,269.3704,0,U,49088,999,23843,.1295E-3,.63E-6,0
ONEWEB-0300,2021-075Q,2026-07-23T07:36:26.572608,13.12441978,.0001501,87.8983,343.4754,103.6990,256.4306,0,U,49089,999,23994,.27172E-3,.11E-5,0
